{
  "type": "FeatureCollection",
  "features": [
    {
      "type": "Feature",
      "properties": {
        "norad_id": 34314,
        "name": "COSMOS 2251 DEB",
        "group": "cosmos-2251-debris",
        "lat": -4.555013054993245,
        "lon": 135.2605702301848,
        "alt_km": 878.4209414111365,
        "timestamp": "2025-12-09T14:52:26.556431+00:00",
        "meta_object_name": "COSMOS 2251 DEB",
        "meta_object_id": "1993-036NL",
        "meta_epoch": "2025-12-09T07:46:55.987968",
        "meta_mean_motion": 14.17412137,
        "meta_eccentricity": 0.01027202,
        "meta_inclination": 74.007,
        "meta_ra_of_asc_node": 314.4784,
        "meta_arg_of_pericenter": 61.0003,
        "meta_mean_anomaly": 55.435,
        "meta_ephemeris_type": 0,
        "meta_classification_type": "U",
        "meta_norad_cat_id": 34314,
        "meta_element_set_no": 999,
        "meta_rev_at_epoch": 86609,
        "meta_bstar": 0.0010266522,
        "meta_mean_motion_dot": 2.166e-05,
        "meta_mean_motion_ddot": 0,
        "tle_line1": "1 34314U 93036NL  25343.32425912  .00002166  00000+0  10267-2 0  9993",
        "tle_line2": "2 34314  74.0070 314.4784 0102720  61.0003  55.4350 14.17412137866090"
      },
      "geometry": {
        "type": "Point",
        "coordinates": [
          135.2605702301848,
          -4.555013054993245
        ]
      }
    },
    {
      "type": "Feature",
      "properties": {
        "norad_id": 34316,
        "name": "COSMOS 2251 DEB",
        "group": "cosmos-2251-debris",
        "lat": -71.74647085234767,
        "lon": -136.83983130197555,
        "alt_km": 605.1655391212253,
        "timestamp": "2025-12-09T14:52:26.556441+00:00",
        "meta_object_name": "COSMOS 2251 DEB",
        "meta_object_id": "1993-036NN",
        "meta_epoch": "2025-12-09T00:49:51.628512",
        "meta_mean_motion": 14.91651734,
        "meta_eccentricity": 0.00080663,
        "meta_inclination": 74.066,
        "meta_ra_of_asc_node": 344.3098,
        "meta_arg_of_pericenter": 70.6253,
        "meta_mean_anomaly": 289.5801,
        "meta_ephemeris_type": 0,
        "meta_classification_type": "U",
        "meta_norad_cat_id": 34316,
        "meta_element_set_no": 999,
        "meta_rev_at_epoch": 89154,
        "meta_bstar": 0.0018713772,
        "meta_mean_motion_dot": 0.00018835,
        "meta_mean_motion_ddot": 0,
        "tle_line1": "1 34316U 93036NN  25343.03462533  .00018835  00000+0  18714-2 0  9998",
        "tle_line2": "2 34316  74.0660 344.3098 0008066  70.6253 289.5801 14.91651734891547"
      },
      "geometry": {
        "type": "Point",
        "coordinates": [
          -136.83983130197555,
          -71.74647085234767
        ]
      }
    },
    {
      "type": "Feature",
      "properties": {
        "norad_id": 34317,
        "name": "COSMOS 2251 DEB",
        "group": "cosmos-2251-debris",
        "lat": -14.483276630152735,
        "lon": 36.62304130967859,
        "alt_km": 843.4978416125687,
        "timestamp": "2025-12-09T14:52:26.556451+00:00",
        "meta_object_name": "COSMOS 2251 DEB",
        "meta_object_id": "1993-036NP",
        "meta_epoch": "2025-12-09T06:26:27.555936",
        "meta_mean_motion": 13.65117468,
        "meta_eccentricity": 0.03364072,
        "meta_inclination": 73.9248,
        "meta_ra_of_asc_node": 41.4726,
        "meta_arg_of_pericenter": 31.4075,
        "meta_mean_anomaly": 30.1575,
        "meta_ephemeris_type": 0,
        "meta_classification_type": "U",
        "meta_norad_cat_id": 34317,
        "meta_element_set_no": 999,
        "meta_rev_at_epoch": 83572,
        "meta_bstar": 0.00059184689,
        "meta_mean_motion_dot": 6.84e-06,
        "meta_mean_motion_ddot": 0,
        "tle_line1": "1 34317U 93036NP  25343.26837449  .00000684  00000+0  59185-3 0  9997",
        "tle_line2": "2 34317  73.9248  41.4726 0336407  31.4075  30.1575 13.65117468835728"
      },
      "geometry": {
        "type": "Point",
        "coordinates": [
          36.62304130967859,
          -14.483276630152735
        ]
      }
    },
    {
      "type": "Feature",
      "properties": {
        "norad_id": 34321,
        "name": "COSMOS 2251 DEB",
        "group": "cosmos-2251-debris",
        "lat": 20.969579325294486,
        "lon": -24.07822627250557,
        "alt_km": 732.8282957296642,
        "timestamp": "2025-12-09T14:52:26.556462+00:00",
        "meta_object_name": "COSMOS 2251 DEB",
        "meta_object_id": "1993-036NT",
        "meta_epoch": "2025-12-09T06:41:10.494816",
        "meta_mean_motion": 14.50032605,
        "meta_eccentricity": 0.00157437,
        "meta_inclination": 74.028,
        "meta_ra_of_asc_node": 162.8643,
        "meta_arg_of_pericenter": 292.6193,
        "meta_mean_anomaly": 245.3904,
        "meta_ephemeris_type": 0,
        "meta_classification_type": "U",
        "meta_norad_cat_id": 34321,
        "meta_element_set_no": 999,
        "meta_rev_at_epoch": 88436,
        "meta_bstar": 0.00090196652,
        "meta_mean_motion_dot": 3.475e-05,
        "meta_mean_motion_ddot": 0,
        "tle_line1": "1 34321U 93036NT  25343.27859369  .00003475  00000+0  90197-3 0  9997",
        "tle_line2": "2 34321  74.0280 162.8643 0015743 292.6193 245.3904 14.50032605884360"
      },
      "geometry": {
        "type": "Point",
        "coordinates": [
          -24.07822627250557,
          20.969579325294486
        ]
      }
    },
    {
      "type": "Feature",
      "properties": {
        "norad_id": 34323,
        "name": "COSMOS 2251 DEB",
        "group": "cosmos-2251-debris",
        "lat": -71.91216639358325,
        "lon": 11.027420364194494,
        "alt_km": 652.3774128996356,
        "timestamp": "2025-12-09T14:52:26.556472+00:00",
        "meta_object_name": "COSMOS 2251 DEB",
        "meta_object_id": "1993-036NV",
        "meta_epoch": "2025-12-08T20:30:14.520672",
        "meta_mean_motion": 14.74215276,
        "meta_eccentricity": 0.00598505,
        "meta_inclination": 73.9532,
        "meta_ra_of_asc_node": 130.7377,
        "meta_arg_of_pericenter": 175.6876,
        "meta_mean_anomaly": 344.586,
        "meta_ephemeris_type": 0,
        "meta_classification_type": "U",
        "meta_norad_cat_id": 34323,
        "meta_element_set_no": 999,
        "meta_rev_at_epoch": 88382,
        "meta_bstar": 0.004379357,
        "meta_mean_motion_dot": 0.00029872,
        "meta_mean_motion_ddot": 0,
        "tle_line1": "1 34323U 93036NV  25342.85433473  .00029872  00000+0  43794-2 0  9995",
        "tle_line2": "2 34323  73.9532 130.7377 0059850 175.6876 344.5860 14.74215276883829"
      },
      "geometry": {
        "type": "Point",
        "coordinates": [
          11.027420364194494,
          -71.91216639358325
        ]
      }
    },
    {
      "type": "Feature",
      "properties": {
        "norad_id": 34325,
        "name": "COSMOS 2251 DEB",
        "group": "cosmos-2251-debris",
        "lat": 1.2410850596274225,
        "lon": 17.945645052567478,
        "alt_km": 769.2251400975183,
        "timestamp": "2025-12-09T14:52:26.556482+00:00",
        "meta_object_name": "COSMOS 2251 DEB",
        "meta_object_id": "1993-036NX",
        "meta_epoch": "2025-12-09T01:07:22.864224",
        "meta_mean_motion": 14.04437788,
        "meta_eccentricity": 0.01926141,
        "meta_inclination": 73.8715,
        "meta_ra_of_asc_node": 199.3139,
        "meta_arg_of_pericenter": 217.3878,
        "meta_mean_anomaly": 306.7844,
        "meta_ephemeris_type": 0,
        "meta_classification_type": "U",
        "meta_norad_cat_id": 34325,
        "meta_element_set_no": 999,
        "meta_rev_at_epoch": 85463,
        "meta_bstar": 0.0020246976,
        "meta_mean_motion_dot": 3.783e-05,
        "meta_mean_motion_ddot": 0,
        "tle_line1": "1 34325U 93036NX  25343.04679241  .00003783  00000+0  20247-2 0  9995",
        "tle_line2": "2 34325  73.8715 199.3139 0192614 217.3878 306.7844 14.04437788854638"
      },
      "geometry": {
        "type": "Point",
        "coordinates": [
          17.945645052567478,
          1.2410850596274225
        ]
      }
    },
    {
      "type": "Feature",
      "properties": {
        "norad_id": 34327,
        "name": "COSMOS 2251 DEB",
        "group": "cosmos-2251-debris",
        "lat": 51.428312715271396,
        "lon": -22.963938253374206,
        "alt_km": 610.4456639107648,
        "timestamp": "2025-12-09T14:52:26.556493+00:00",
        "meta_object_name": "COSMOS 2251 DEB",
        "meta_object_id": "1993-036NZ",
        "meta_epoch": "2025-12-09T00:29:52.198656",
        "meta_mean_motion": 14.89049096,
        "meta_eccentricity": 0.00325658,
        "meta_inclination": 73.9933,
        "meta_ra_of_asc_node": 179.3336,
        "meta_arg_of_pericenter": 356.457,
        "meta_mean_anomaly": 159.0682,
        "meta_ephemeris_type": 0,
        "meta_classification_type": "U",
        "meta_norad_cat_id": 34327,
        "meta_element_set_no": 999,
        "meta_rev_at_epoch": 89452,
        "meta_bstar": 0.0012954373,
        "meta_mean_motion_dot": 0.00012309,
        "meta_mean_motion_ddot": 0,
        "tle_line1": "1 34327U 93036NZ  25343.02074304  .00012309  00000+0  12954-2 0  9994",
        "tle_line2": "2 34327  73.9933 179.3336 0032565 356.4570 159.0682 14.89049096894527"
      },
      "geometry": {
        "type": "Point",
        "coordinates": [
          -22.963938253374206,
          51.428312715271396
        ]
      }
    }
  ]
}